CCSDS_OMM_VERS = 2.0
CREATION_DATE  = 
ORIGINATOR     = 

OBJECT_NAME    = 2025-313AA
OBJECT_ID      = 2025-313AA
CENTER_NAME    = EARTH
REF_FRAME      = TEME
TIME_SYSTEM    = UTC
MEAN_ELEMENT_THEORY = SGP/SGP4

EPOCH          = 2026-01-26T18:27:03.581280
MEAN_MOTION    = 15.20766948
ECCENTRICITY   = .0015951
INCLINATION    = 97.4092
RA_OF_ASC_NODE = 103.7313
ARG_OF_PERICENTER = 137.8394
MEAN_ANOMALY   = 222.4072

EPHEMERIS_TYPE = 0
CLASSIFICATION_TYPE = U
NORAD_CAT_ID   = 67272
ELEMENT_SET_NO = 999
REV_AT_EPOCH   = 444
BSTAR          = .84173E-3
MEAN_MOTION_DOT = .18563E-3
MEAN_MOTION_DDOT = 0

CCSDS_OMM_VERS = 2.0
CREATION_DATE  = 
ORIGINATOR     = 

OBJECT_NAME    = 2025-313AB
OBJECT_ID      = 2025-313AB
CENTER_NAME    = EARTH
REF_FRAME      = TEME
TIME_SYSTEM    = UTC
MEAN_ELEMENT_THEORY = SGP/SGP4

EPOCH          = 2026-01-26T18:35:32.834112
MEAN_MOTION    = 15.20126510
ECCENTRICITY   = .0015523
INCLINATION    = 97.4109
RA_OF_ASC_NODE = 103.7304
ARG_OF_PERICENTER = 141.6232
MEAN_ANOMALY   = 218.6111

EPHEMERIS_TYPE = 0
CLASSIFICATION_TYPE = U
NORAD_CAT_ID   = 67273
ELEMENT_SET_NO = 999
REV_AT_EPOCH   = 444
BSTAR          = .2538E-3
MEAN_MOTION_DOT = .5435E-4
MEAN_MOTION_DDOT = 0

CCSDS_OMM_VERS = 2.0
CREATION_DATE  = 
ORIGINATOR     = 

OBJECT_NAME    = 2025-313AC
OBJECT_ID      = 2025-313AC
CENTER_NAME    = EARTH
REF_FRAME      = TEME
TIME_SYSTEM    = UTC
MEAN_ELEMENT_THEORY = SGP/SGP4

EPOCH          = 2026-01-26T18:31:27.465888
MEAN_MOTION    = 15.20422160
ECCENTRICITY   = .0016131
INCLINATION    = 97.4082
RA_OF_ASC_NODE = 103.7334
ARG_OF_PERICENTER = 136.8726
MEAN_ANOMALY   = 223.3776

EPHEMERIS_TYPE = 0
CLASSIFICATION_TYPE = U
NORAD_CAT_ID   = 67274
ELEMENT_SET_NO = 999
REV_AT_EPOCH   = 444
BSTAR          = .52125E-3
MEAN_MOTION_DOT = .11344E-3
MEAN_MOTION_DDOT = 0

CCSDS_OMM_VERS = 2.0
CREATION_DATE  = 
ORIGINATOR     = 

OBJECT_NAME    = 2025-313AD
OBJECT_ID      = 2025-313AD
CENTER_NAME    = EARTH
REF_FRAME      = TEME
TIME_SYSTEM    = UTC
MEAN_ELEMENT_THEORY = SGP/SGP4

EPOCH          = 2026-01-26T18:29:49.380288
MEAN_MOTION    = 15.20493598
ECCENTRICITY   = .0015304
INCLINATION    = 97.4057
RA_OF_ASC_NODE = 103.7256
ARG_OF_PERICENTER = 139.6811
MEAN_ANOMALY   = 220.5562

EPHEMERIS_TYPE = 0
CLASSIFICATION_TYPE = U
NORAD_CAT_ID   = 67275
ELEMENT_SET_NO = 999
REV_AT_EPOCH   = 444
BSTAR          = .52843E-3
MEAN_MOTION_DOT = .11522E-3
MEAN_MOTION_DDOT = 0

CCSDS_OMM_VERS = 2.0
CREATION_DATE  = 
ORIGINATOR     = 

OBJECT_NAME    = 2025-313AE
OBJECT_ID      = 2025-313AE
CENTER_NAME    = EARTH
REF_FRAME      = TEME
TIME_SYSTEM    = UTC
MEAN_ELEMENT_THEORY = SGP/SGP4

EPOCH          = 2026-01-26T18:29:48.549984
MEAN_MOTION    = 15.20488532
ECCENTRICITY   = .0015263
INCLINATION    = 97.4062
RA_OF_ASC_NODE = 103.7270
ARG_OF_PERICENTER = 139.7497
MEAN_ANOMALY   = 220.4872

EPHEMERIS_TYPE = 0
CLASSIFICATION_TYPE = U
NORAD_CAT_ID   = 67276
ELEMENT_SET_NO = 999
REV_AT_EPOCH   = 444
BSTAR          = .53689E-3
MEAN_MOTION_DOT = .11706E-3
MEAN_MOTION_DDOT = 0

CCSDS_OMM_VERS = 2.0
CREATION_DATE  = 
ORIGINATOR     = 

OBJECT_NAME    = 2025-313AF
OBJECT_ID      = 2025-313AF
CENTER_NAME    = EARTH
REF_FRAME      = TEME
TIME_SYSTEM    = UTC
MEAN_ELEMENT_THEORY = SGP/SGP4

EPOCH          = 2026-01-26T10:36:45.362880
MEAN_MOTION    = 15.20425658
ECCENTRICITY   = .00152657
INCLINATION    = 97.4063
RA_OF_ASC_NODE = 103.4039
ARG_OF_PERICENTER = 140.6083
MEAN_ANOMALY   = 219.6266

EPHEMERIS_TYPE = 0
CLASSIFICATION_TYPE = U
NORAD_CAT_ID   = 67277
ELEMENT_SET_NO = 999
REV_AT_EPOCH   = 439
BSTAR          = .47635862E-3
MEAN_MOTION_DOT = .10357E-3
MEAN_MOTION_DDOT = 0

CCSDS_OMM_VERS = 2.0
CREATION_DATE  = 
ORIGINATOR     = 

OBJECT_NAME    = 2025-313AG
OBJECT_ID      = 2025-313AG
CENTER_NAME    = EARTH
REF_FRAME      = TEME
TIME_SYSTEM    = UTC
MEAN_ELEMENT_THEORY = SGP/SGP4

EPOCH          = 2026-01-26T18:30:01.159200
MEAN_MOTION    = 15.20488785
ECCENTRICITY   = .0015101
INCLINATION    = 97.4066
RA_OF_ASC_NODE = 103.7288
ARG_OF_PERICENTER = 139.7596
MEAN_ANOMALY   = 220.4761

EPHEMERIS_TYPE = 0
CLASSIFICATION_TYPE = U
NORAD_CAT_ID   = 67278
ELEMENT_SET_NO = 999
REV_AT_EPOCH   = 445
BSTAR          = .48896E-3
MEAN_MOTION_DOT = .10652E-3
MEAN_MOTION_DDOT = 0

CCSDS_OMM_VERS = 2.0
CREATION_DATE  = 
ORIGINATOR     = 

OBJECT_NAME    = GALAPAGOS-UTE-SWSU
OBJECT_ID      = 2025-313AH
CENTER_NAME    = EARTH
REF_FRAME      = TEME
TIME_SYSTEM    = UTC
MEAN_ELEMENT_THEORY = SGP/SGP4

EPOCH          = 2026-01-26T18:28:17.755680
MEAN_MOTION    = 15.20561844
ECCENTRICITY   = .0015765
INCLINATION    = 97.4077
RA_OF_ASC_NODE = 103.7344
ARG_OF_PERICENTER = 136.6773
MEAN_ANOMALY   = 223.5705

EPHEMERIS_TYPE = 0
CLASSIFICATION_TYPE = U
NORAD_CAT_ID   = 67279
ELEMENT_SET_NO = 999
REV_AT_EPOCH   = 444
BSTAR          = .56045E-3
MEAN_MOTION_DOT = .12252E-3
MEAN_MOTION_DDOT = 0

CCSDS_OMM_VERS = 2.0
CREATION_DATE  = 
ORIGINATOR     = 

OBJECT_NAME    = 2025-313AJ
OBJECT_ID      = 2025-313AJ
CENTER_NAME    = EARTH
REF_FRAME      = TEME
TIME_SYSTEM    = UTC
MEAN_ELEMENT_THEORY = SGP/SGP4

EPOCH          = 2026-01-26T18:19:47.007264
MEAN_MOTION    = 15.20783810
ECCENTRICITY   = .0014736
INCLINATION    = 97.4150
RA_OF_ASC_NODE = 103.7567
ARG_OF_PERICENTER = 133.5507
MEAN_ANOMALY   = 226.6955

EPHEMERIS_TYPE = 0
CLASSIFICATION_TYPE = U
NORAD_CAT_ID   = 67280
ELEMENT_SET_NO = 999
REV_AT_EPOCH   = 444
BSTAR          = .42099E-3
MEAN_MOTION_DOT = .9238E-4
MEAN_MOTION_DDOT = 0

CCSDS_OMM_VERS = 2.0
CREATION_DATE  = 
ORIGINATOR     = 

OBJECT_NAME    = 2025-313AK
OBJECT_ID      = 2025-313AK
CENTER_NAME    = EARTH
REF_FRAME      = TEME
TIME_SYSTEM    = UTC
MEAN_ELEMENT_THEORY = SGP/SGP4

EPOCH          = 2026-01-26T19:52:00.393312
MEAN_MOTION    = 15.20878142
ECCENTRICITY   = .0013456
INCLINATION    = 97.4033
RA_OF_ASC_NODE = 103.7897
ARG_OF_PERICENTER = 132.3839
MEAN_ANOMALY   = 227.8538

EPHEMERIS_TYPE = 0
CLASSIFICATION_TYPE = U
NORAD_CAT_ID   = 67281
ELEMENT_SET_NO = 999
REV_AT_EPOCH   = 445
BSTAR          = .42927E-3
MEAN_MOTION_DOT = .9443E-4
MEAN_MOTION_DDOT = 0

CCSDS_OMM_VERS = 2.0
CREATION_DATE  = 
ORIGINATOR     = 

OBJECT_NAME    = 2025-313AL
OBJECT_ID      = 2025-313AL
CENTER_NAME    = EARTH
REF_FRAME      = TEME
TIME_SYSTEM    = UTC
MEAN_ELEMENT_THEORY = SGP/SGP4

EPOCH          = 2026-01-26T19:41:44.034720
MEAN_MOTION    = 15.21263233
ECCENTRICITY   = .001224
INCLINATION    = 97.4082
RA_OF_ASC_NODE = 103.8060
ARG_OF_PERICENTER = 131.4776
MEAN_ANOMALY   = 228.7513

EPHEMERIS_TYPE = 0
CLASSIFICATION_TYPE = U
NORAD_CAT_ID   = 67282
ELEMENT_SET_NO = 999
REV_AT_EPOCH   = 445
BSTAR          = .44836E-3
MEAN_MOTION_DOT = .9975E-4
MEAN_MOTION_DDOT = 0

CCSDS_OMM_VERS = 2.0
CREATION_DATE  = 
ORIGINATOR     = 

OBJECT_NAME    = HORS 5
OBJECT_ID      = 2025-313AM
CENTER_NAME    = EARTH
REF_FRAME      = TEME
TIME_SYSTEM    = UTC
MEAN_ELEMENT_THEORY = SGP/SGP4

EPOCH          = 2026-01-26T19:38:33.705024
MEAN_MOTION    = 15.21502820
ECCENTRICITY   = .0011992
INCLINATION    = 97.4090
RA_OF_ASC_NODE = 103.8122
ARG_OF_PERICENTER = 131.3939
MEAN_ANOMALY   = 228.8330

EPHEMERIS_TYPE = 0
CLASSIFICATION_TYPE = U
NORAD_CAT_ID   = 67283
ELEMENT_SET_NO = 999
REV_AT_EPOCH   = 445
BSTAR          = .62257E-3
MEAN_MOTION_DOT = .13982E-3
MEAN_MOTION_DDOT = 0

