2025-313AA              
1 67272U 25313AA  26026.76879145  .00018563  00000+0  84173-3 0  9999
2 67272  97.4092 103.7313 0015951 137.8394 222.4072 15.20766948  4440
2025-313AB              
1 67273U 25313AB  26026.77468558  .00005435  00000+0  25380-3 0  9992
2 67273  97.4109 103.7304 0015523 141.6232 218.6111 15.20126510  4445
2025-313AC              
1 67274U 25313AC  26026.77184567  .00011344  00000+0  52125-3 0  9991
2 67274  97.4082 103.7334 0016131 136.8726 223.3776 15.20422160  4449
2025-313AD              
1 67275U 25313AD  26026.77071042  .00011522  00000+0  52843-3 0  9990
2 67275  97.4057 103.7256 0015304 139.6811 220.5562 15.20493598  4447
2025-313AE              
1 67276U 25313AE  26026.77070081  .00011706  00000+0  53689-3 0  9996
2 67276  97.4062 103.7270 0015263 139.7497 220.4872 15.20488532  4440
2025-313AF              
1 67277U 25313AF  26026.44219170  .00010357  00000+0  47636-3 0  9991
2 67277  97.4063 103.4039 0015265 140.6083 219.6266 15.20425658  4397
2025-313AG              
1 67278U 25313AG  26026.77084675  .00010652  00000+0  48896-3 0  9995
2 67278  97.4066 103.7288 0015101 139.7596 220.4761 15.20488785  4454
GALAPAGOS-UTE-SWSU      
1 67279U 25313AH  26026.76964995  .00012252  00000+0  56045-3 0  9990
2 67279  97.4077 103.7344 0015765 136.6773 223.5705 15.20561844  4448
2025-313AJ              
1 67280U 25313AJ  26026.76373851  .00009238  00000+0  42099-3 0  9991
2 67280  97.4150 103.7567 0014736 133.5507 226.6955 15.20783810  4447
2025-313AK              
1 67281U 25313AK  26026.82778233  .00009443  00000+0  42927-3 0  9990
2 67281  97.4033 103.7897 0013456 132.3839 227.8538 15.20878142  4451
2025-313AL              
1 67282U 25313AL  26026.82064855  .00009975  00000+0  44836-3 0  9990
2 67282  97.4082 103.8060 0012240 131.4776 228.7513 15.21263233  4452
HORS 5                  
1 67283U 25313AM  26026.81844566  .00013982  00000+0  62257-3 0  9995
2 67283  97.4090 103.8122 0011992 131.3939 228.8330 15.21502820  4450
